ONEWEB-0326             
1 49195U 21083K   22241.44688196  .00000051  00000+0  95790-4 0  9998
2 49195  87.9089 251.1416 0001562 110.4555 249.6745 13.18685453 47109
ONEWEB-0327             
1 49196U 21083L   22241.73490096  .00000070  00000+0  14551-3 0  9997
2 49196  87.9100 251.0642 0001703 111.3213 248.8101 13.18690181 47169
ONEWEB-0328             
1 49197U 21083M   22241.49472136  .00000016  00000+0  78420-5 0  9993
2 49197  87.8948 235.8922 0001778  85.4809 274.6523 13.13452447 48739
ONEWEB-0331             
1 49198U 21083N   22241.74572839  .00000078  00000+0  16425-3 0  9996
2 49198  87.9099 251.1053 0001683  98.6307 261.5016 13.18683493 47157
ONEWEB-0333             
1 49199U 21083P   22241.79420118 -.00000131  00000+0 -39259-3 0  9996
2 49199  87.8946 235.8322 0002259  81.4645 278.6740 13.13599273 48781
ONEWEB-0334             
1 49200U 21083Q   22241.91667824 -.00006212  00000+0 -64315-3 0  9997
2 49200  87.2076 204.3639 0005317  72.5984 337.4410 14.90342820  1304
ONEWEB-0335             
1 49201U 21083R   22241.71377122 -.00000267  00000+0 -76530-3 0  9991
2 49201  87.8936 235.8442 0001676  90.3456 269.7866 13.13553177 48781
ONEWEB-0336             
1 49202U 21083S   22241.68208827  .00000135  00000+0  33373-3 0  9993
2 49202  87.8948 235.8502 0002227  84.1089 276.0294 13.13621850 48777
ONEWEB-0337             
1 49203U 21083T   22241.70524874 -.00000378  00000+0 -10704-2 0  9993
2 49203  87.8940 235.8477 0001698  85.6330 274.4993 13.13467753 48775
ONEWEB-0338             
1 49204U 21083U   22241.91667824 -.00008563  00000+0 -88536-3 0  9993
2 49204  87.2138 204.6256 0005312  91.9386 223.9417 14.90360344  1308
ONEWEB-0339             
1 49205U 21083V   22241.70100776 -.00000229  00000+0 -66192-3 0  9994
2 49205  87.8948 235.8465 0002015  72.9874 287.1476 13.13412435 48750
ONEWEB-0340             
1 49206U 21083W   22241.42986082  .00000016  00000+0  90636-5 0  9990
2 49206  87.9091 251.1592 0001810  90.5348 269.5992 13.18686302 48362
ONEWEB-0341             
1 49207U 21083X   22241.43761046  .00000043  00000+0  75570-4 0  9992
2 49207  87.9112 251.0869 0001467  56.9716 303.1557 13.18687935 47090
ONEWEB-0342             
1 49208U 21083Y   22241.91667824 -.00006190  00000+0 -64046-3 0  9991
2 49208  87.2095 204.4542 0005129  92.0464  35.0665 14.90368228  1301
ONEWEB-0343             
1 49209U 21083Z   22241.43450198  .00000045  00000+0  81621-4 0  9993
2 49209  87.9101 251.1259 0001990  49.2025 310.9279 13.18685392 47141
ONEWEB-0344             
1 49210U 21083AA  22241.74548968 -.00000184  00000+0 -53740-3 0  9998
2 49210  87.8947 235.8418 0001972  89.9014 270.2341 13.13479394 48760
ONEWEB-0345             
1 49211U 21083AB  22241.68729561 -.00000018  00000+0 -83399-4 0  9992
2 49211  87.8936 235.8416 0001173  90.2529 269.8735 13.13470792 48760
ONEWEB-0346             
1 49212U 21083AC  22241.74418057 -.00000365  00000+0 -95980-3 0  9998
2 49212  87.9099 251.0556 0001675 106.8997 253.2319 13.18687007 47125
ONEWEB-0348             
1 49213U 21083AD  22241.91667824 -.00005633  00000+0 -58309-3 0  9993
2 49213  87.2120 204.5646 0005175  82.4280   0.2023 14.90362748  1305
ONEWEB-0350             
1 49214U 21083AE  22241.46819666 -.00000256  00000+0 -73697-3 0  9990
2 49214  87.8943 235.9088 0001490  91.6329 268.4970 13.13370748 48768
ONEWEB-0351             
1 49215U 21083AF  22241.91667824 -.00008228  00000+0 -85104-3 0  9991
2 49215  87.2054 204.2711 0004888  75.9048 127.5707 14.90351392  1307
ONEWEB-0352             
1 49216U 21083AG  22241.67783088  .00000207  00000+0  53167-3 0  9997
2 49216  87.8944 235.8510 0002290  82.9007 277.2383 13.13584215 48880
ONEWEB-0354             
1 49217U 21083AH  22241.91667824 -.00006072  00000+0 -62845-3 0  9995
2 49217  87.2104 204.4854 0004241  84.9159  15.1892 14.90359189  1300
ONEWEB-0355             
1 49218U 21083AJ  22241.48099118 -.00000267  00000+0 -76633-3 0  9993
2 49218  87.8948 235.8937 0001928  75.1963 284.9380 13.13510401 48733
ONEWEB-0357             
1 49219U 21083AK  22241.91667824 -.00006179  00000+0 -63933-3 0  9994
2 49219  87.2103 204.4749 0005570  91.4913 308.9691 14.90368104  1308
ONEWEB-0332             
1 49279U 21090A   22241.91667824 -.00002548  00000+0 -69082-2 0  9994
2 49279  87.9096 205.4718 0002638  74.5674  15.0559 13.14506400  1304
ONEWEB-0347             
1 49280U 21090B   22241.91667824 -.00022926  00000+0 -86429-2 0  9992
2 49280  87.6979 197.2054 0000352 241.5675  36.5063 14.31691312  1307
ONEWEB-0349             
1 49281U 21090C   22241.91667824 -.00027030  00000+0 -66692-1 0  9993
2 49281  87.9363 190.4462 0001538  79.0938   5.9067 13.20788960  1306
ONEWEB-0353             
1 49282U 21090D   22241.91667824 -.00002044  00000+0 -55483-2 0  9999
2 49282  87.9100 205.5073 0002597  80.8965  48.7333 13.14508131  1302
ONEWEB-0356             
1 49283U 21090E   22241.91667824 -.00029612  00000+0 -73078-1 0  9999
2 49283  87.9383 190.4211 0001903 112.3505 342.6170 13.20792210  1308
ONEWEB-0358             
1 49284U 21090F   22241.91667824 -.00029947  00000+0 -39383-1 0  9992
2 49284  87.9169 190.3926 0002206  24.0771 325.9498 13.61497057  1307
ONEWEB-0359             
1 49285U 21090G   22241.91667824  .00000014  00000+0  00000+0 0  9997
2 49285  87.9133 190.4220 0001581  54.3601 279.0285 13.58774368  1302
ONEWEB-0360             
1 49286U 21090H   22241.91667824 -.00026508  00000+0 -65401-1 0  9994
2 49286  87.9366 190.3704 0001967  81.3103 303.6110 13.20789830  1302
ONEWEB-0361             
1 49287U 21090J   22241.91667824 -.00027113  00000+0 -66895-1 0  9996
2 49287  87.9364 190.4062 0002038  82.1430  22.7562 13.20791963  1301
ONEWEB-0362             
1 49288U 21090K   22241.91667824  .00021498  00000+0  53547-1 0  9995
2 49288  87.9124 220.6075 0002464  89.5416  69.3423 13.19716522  1303
ONEWEB-0363             
1 49289U 21090L   22241.91667824 -.00026616  00000+0 -65665-1 0  9999
2 49289  87.9369 190.4049 0001853  89.0080 305.8950 13.20793471  1306
ONEWEB-0364             
1 49290U 21090M   22241.91667824 -.00022684  00000+0 -92131-2 0  9991
2 49290  87.6919 197.4217 0001432 108.5516 158.9516 14.27885648  1305
ONEWEB-0365             
1 49291U 21090N   22241.91667824  .00020957  00000+0  52199-1 0  9990
2 49291  87.9236 220.6878 0001988  82.3032  47.1946 13.19719005  1300
ONEWEB-0366             
1 49292U 21090P   22241.91667824 -.00002079  00000+0 -56434-2 0  9995
2 49292  87.9110 205.4919 0002433  86.4207  63.1876 13.14509422  1309
ONEWEB-0367             
1 49293U 21090Q   22241.91667824 -.00026709  00000+0 -65898-1 0  9995
2 49293  87.9393 190.4437 0002261  81.7617 323.2637 13.20789440  1305
ONEWEB-0368             
1 49294U 21090R   22241.91667824 -.00018238  00000+0 -74116-2 0  9998
2 49294  87.6944 197.4037 0001119  11.5409  16.8370 14.27834619  1305
ONEWEB-0369             
1 49295U 21090S   22241.91667824  .00021241  00000+0  52908-1 0  9999
2 49295  87.9243 220.6542 0002378  87.9073  56.3719 13.19715186  1306
ONEWEB-0370             
1 49296U 21090T   22241.91667824 -.00026325  00000+0 -64945-1 0  9994
2 49296  87.9377 190.4064 0002109  83.8442 291.2183 13.20793292  1306
ONEWEB-0371             
1 49297U 21090U   22241.91667824  .00020466  00000+0  50979-1 0  9995
2 49297  87.9237 220.5857 0001974  85.4008  29.4030 13.19718554  1300
ONEWEB-0372             
1 49298U 21090V   22241.91667824 -.00026866  00000+0 -66286-1 0  9996
2 49298  87.9369 190.4053 0002565  85.5706 329.4567 13.20788383  1300
ONEWEB-0373             
1 49299U 21090W   22241.91667824 -.00020032  00000+0 -75489-2 0  9992
2 49299  87.6942 197.1362 0003342 328.1223 160.6833 14.31692589  1302
ONEWEB-0374             
1 49300U 21090X   22241.91667824 -.00002211  00000+0 -59977-2 0  9998
2 49300  87.9104 205.5060 0002321  86.5579  78.1220 13.14511996  1307
ONEWEB-0375             
1 49301U 21090Y   22241.91667824  .00000014  00000+0  00000+0 0  9996
2 49301  87.9351 190.3853 0001956 290.8264  28.5542 13.57869971  1309
ONEWEB-0376             
1 49302U 21090Z   22241.91667824  .00020758  00000+0  51704-1 0  9993
2 49302  87.9238 220.6660 0002361  83.6843  38.4499 13.19718045  1303
ONEWEB-0377             
1 49303U 21090AA  22241.91667824  .00000014  00000+0  00000+0 0  9998
2 49303  87.9162 190.4024 0001861  38.3292 271.9636 13.55229534  1304
ONEWEB-0378             
1 49304U 21090AB  22241.91667824 -.00026780  00000+0 -66075-1 0  9995
2 49304  87.9400 190.4435 0002295  84.7378  70.2182 13.20787569  1303
ONEWEB-0379             
1 49305U 21090AC  22241.91667824 -.00003937  00000+0 -10656-1 0  9999
2 49305  87.9104 205.4883 0002300  84.0645 155.6331 13.14514916  1307
ONEWEB-0380             
1 49306U 21090AD  22241.91667824  .00021098  00000+0  52550-1 0  9995
2 49306  87.9238 220.6724 0001886  81.6016  55.2065 13.19719081  1306
ONEWEB-0381             
1 49307U 21090AE  22241.91667824 -.00026933  00000+0 -66450-1 0  9995
2 49307  87.9376 190.4259 0002020  86.1773 338.7429 13.20791759  1305
ONEWEB-0382             
1 49308U 21090AF  22241.91667824 -.00027089  00000+0 -66834-1 0  9995
2 49308  87.9370 190.4129 0001856  96.3042  18.7417 13.20793547  1303
ONEWEB-0383             
1 49309U 21090AG  22241.91667824 -.00004400  00000+0 -11908-1 0  9990
2 49309  87.9102 205.4295 0002296  88.9072 165.8079 13.14510050  1304
ONEWEB-0384             
1 49310U 21090AH  22241.91667824 -.00027032  00000+0 -66695-1 0  9991
2 49310  87.9368 190.4260 0001710 110.3292  14.5847 13.20790957  1305
ONEWEB-0385             
1 49311U 21090AJ  22241.91667824 -.00026935  00000+0 -66459-1 0  9991
2 49311  87.9379 190.4015 0002028  95.7963  49.1816 13.20787347  1309
ONEWEB-0386             
1 49312U 21090AK  22241.91667824 -.00042397  00000+0 -10475+0 0  9997
2 49312  87.9390 190.4183 0002277  94.6363 340.4904 13.20798602  1308
